[{"OBJECT_NAME":"STARLINK-31184","OBJECT_ID":"2024-012G","EPOCH":"2026-03-09T14:11:46.921056","MEAN_MOTION":15.27595186,"ECCENTRICITY":0.0001129,"INCLINATION":43.0008,"RA_OF_ASC_NODE":165.5727,"ARG_OF_PERICENTER":192.4014,"MEAN_ANOMALY":167.681,"EPHEMERIS_TYPE":0,"CLASSIFICATION_TYPE":"U","NORAD_CAT_ID":58793,"ELEMENT_SET_NO":999,"REV_AT_EPOCH":12122,"BSTAR":-0.00016209,"MEAN_MOTION_DOT":-4.722e-5,"MEAN_MOTION_DDOT":0},{"OBJECT_NAME":"FLOCK 4G-5","OBJECT_ID":"2025-009BG","EPOCH":"2026-03-09T10:57:11.608704","MEAN_MOTION":15.28679529,"ECCENTRICITY":0.00020946,"INCLINATION":97.4058,"RA_OF_ASC_NODE":151.2478,"ARG_OF_PERICENTER":314.5072,"MEAN_ANOMALY":45.5996,"EPHEMERIS_TYPE":0,"CLASSIFICATION_TYPE":"U","NORAD_CAT_ID":62663,"ELEMENT_SET_NO":999,"REV_AT_EPOCH":6369,"BSTAR":0.00040688068,"MEAN_MOTION_DOT":0.00011278,"MEAN_MOTION_DDOT":0}]
